{"type": "FeatureCollection", "features": [ {"type": "Feature", "properties": {"norad_id": 43648, "name": "BEIDOU-3 M15 (C34)", "group": "gnss", "lat": -17.73303674613421, "lon": 139.86902328014256, "alt_km": 21540.495056147713, "timestamp": "2025-12-10T23:33:13.064197+00:00", "meta": {"OBJECT_NAME": "BEIDOU-3 M15 (C34)", "OBJECT_ID": "2018-078B", "EPOCH": "2025-12-09T14:32:59.144640", "MEAN_MOTION": 1.86231871, "ECCENTRICITY": 0.0003622, "INCLINATION": 54.2606, "RA_OF_ASC_NODE": 306.6314, "ARG_OF_PERICENTER": 18.0065, "MEAN_ANOMALY": 341.9965, "EPHEMERIS_TYPE": 0, "CLASSIFICATION_TYPE": "U", "NORAD_CAT_ID": 43648, "ELEMENT_SET_NO": 999, "REV_AT_EPOCH": 4864, "BSTAR": 0, "MEAN_MOTION_DOT": -7.7e-07, "MEAN_MOTION_DDOT": 0}, "tle": {"line1": "1 43648U 18078B   25343.60624010 -.00000077  00000+0  00000+0 0  9998", "line2": "2 43648  54.2606 306.6314 0003622  18.0065 341.9965  1.86231871 48642"}}, "geometry": {"type": "Point", "coordinates": [139.86902328014256, -17.73303674613421]}}, {"type": "Feature", "properties": {"norad_id": 43683, "name": "BEIDOU-3 G1 (C59)", "group": "gnss", "lat": 2.4266620619138357, "lon": -146.64228186971218, "alt_km": 35780.44553925241, "timestamp": "2025-12-10T23:33:13.064210+00:00", "meta": {"OBJECT_NAME": "BEIDOU-3 G1 (C59)", "OBJECT_ID": "2018-085A", "EPOCH": "2025-12-10T06:12:22.341024", "MEAN_MOTION": 1.00271312, "ECCENTRICITY": 0.0001857, "INCLINATION": 2.6013, "RA_OF_ASC_NODE": 103.0522, "ARG_OF_PERICENTER": 65.4692, "MEAN_ANOMALY": 143.8794, "EPHEMERIS_TYPE": 0, "CLASSIFICATION_TYPE": "U", "NORAD_CAT_ID": 43683, "ELEMENT_SET_NO": 999, "REV_AT_EPOCH": 2616, "BSTAR": 0, "MEAN_MOTION_DOT": -2.74e-06, "MEAN_MOTION_DDOT": 0}, "tle": {"line1": "1 43683U 18085A   25344.25859191 -.00000274  00000+0  00000+0 0  9996", "line2": "2 43683   2.6013 103.0522 0001857  65.4692 143.8794  1.00271312 26162"}}, "geometry": {"type": "Point", "coordinates": [-146.64228186971218, 2.4266620619138357]}}, {"type": "Feature", "properties": {"norad_id": 43687, "name": "COSMOS 2529 (757)", "group": "gnss", "lat": -18.542467961398515, "lon": -170.3476561599269, "alt_km": 19131.158461774638, "timestamp": "2025-12-10T23:33:13.064220+00:00", "meta": {"OBJECT_NAME": "COSMOS 2529 (757)", "OBJECT_ID": "2018-086A", "EPOCH": "2025-12-10T01:40:33.584160", "MEAN_MOTION": 2.13101882, "ECCENTRICITY": 0.00072869, "INCLINATION": 64.2919, "RA_OF_ASC_NODE": 198.9786, "ARG_OF_PERICENTER": 254.1993, "MEAN_ANOMALY": 105.7913, "EPHEMERIS_TYPE": 0, "CLASSIFICATION_TYPE": "U", "NORAD_CAT_ID": 43687, "ELEMENT_SET_NO": 999, "REV_AT_EPOCH": 5525, "BSTAR": 0, "MEAN_MOTION_DOT": 4.4e-07, "MEAN_MOTION_DDOT": 0}, "tle": {"line1": "1 43687U 18086A   25344.06983315  .00000044  00000+0  00000+0 0  9990", "line2": "2 43687  64.2919 198.9786 0007286 254.1993 105.7913  2.13101882 55254"}}, "geometry": {"type": "Point", "coordinates": [-170.3476561599269, -18.542467961398515]}}, {"type": "Feature", "properties": {"norad_id": 43706, "name": "BEIDOU-3 M17 (C36)", "group": "gnss", "lat": 53.758038574721674, "lon": -71.61029493611208, "alt_km": 21536.887878453654, "timestamp": "2025-12-10T23:33:13.064231+00:00", "meta": {"OBJECT_NAME": "BEIDOU-3 M17 (C36)", "OBJECT_ID": "2018-093A", "EPOCH": "2025-12-10T13:45:05.408064", "MEAN_MOTION": 1.86228361, "ECCENTRICITY": 0.00062551, "INCLINATION": 54.1726, "RA_OF_ASC_NODE": 188.6952, "ARG_OF_PERICENTER": 307.2652, "MEAN_ANOMALY": 234.6216, "EPHEMERIS_TYPE": 0, "CLASSIFICATION_TYPE": "U", "NORAD_CAT_ID": 43706, "ELEMENT_SET_NO": 999, "REV_AT_EPOCH": 4802, "BSTAR": 0, "MEAN_MOTION_DOT": 5.7e-07, "MEAN_MOTION_DDOT": 0}, "tle": {"line1": "1 43706U 18093A   25344.57297926  .00000057  00000+0  00000+0 0  9996", "line2": "2 43706  54.1726 188.6952 0006255 307.2652 234.6216  1.86228361 48024"}}, "geometry": {"type": "Point", "coordinates": [-71.61029493611208, 53.758038574721674]}}, {"type": "Feature", "properties": {"norad_id": 43707, "name": "BEIDOU-3 M18 (C37)", "group": "gnss", "lat": -6.949085201153462, "lon": 13.73175830898438, "alt_km": 21546.437866370045, "timestamp": "2025-12-10T23:33:13.064241+00:00", "meta": {"OBJECT_NAME": "BEIDOU-3 M18 (C37)", "OBJECT_ID": "2018-093B", "EPOCH": "2025-12-09T02:08:32.306784", "MEAN_MOTION": 1.86226655, "ECCENTRICITY": 0.00062934, "INCLINATION": 54.1729, "RA_OF_ASC_NODE": 188.7377, "ARG_OF_PERICENTER": 351.6926, "MEAN_ANOMALY": 8.358, "EPHEMERIS_TYPE": 0, "CLASSIFICATION_TYPE": "U", "NORAD_CAT_ID": 43707, "ELEMENT_SET_NO": 999, "REV_AT_EPOCH": 4799, "BSTAR": 0, "MEAN_MOTION_DOT": 4.9e-07, "MEAN_MOTION_DDOT": 0}, "tle": {"line1": "1 43707U 18093B   25343.08926281  .00000049  00000+0  00000+0 0  9996", "line2": "2 43707  54.1729 188.7377 0006293 351.6926   8.3580  1.86226655 47998"}}, "geometry": {"type": "Point", "coordinates": [13.73175830898438, -6.949085201153462]}}, {"type": "Feature", "properties": {"norad_id": 43873, "name": "GPS BIII-1  (PRN 04)", "group": "gnss", "lat": -36.209671907026134, "lon": 69.49430001337689, "alt_km": 20235.9564144676, "timestamp": "2025-12-10T23:33:13.064251+00:00", "meta": {"OBJECT_NAME": "GPS BIII-1  (PRN 04)", "OBJECT_ID": "2018-109A", "EPOCH": "2025-12-08T13:41:32.071776", "MEAN_MOTION": 2.00553358, "ECCENTRICITY": 0.003721, "INCLINATION": 55.5654, "RA_OF_ASC_NODE": 99.7112, "ARG_OF_PERICENTER": 194.8122, "MEAN_ANOMALY": 178.3596, "EPHEMERIS_TYPE": 0, "CLASSIFICATION_TYPE": "U", "NORAD_CAT_ID": 43873, "ELEMENT_SET_NO": 999, "REV_AT_EPOCH": 5125, "BSTAR": 0, "MEAN_MOTION_DOT": 6e-08, "MEAN_MOTION_DDOT": 0}, "tle": {"line1": "1 43873U 18109A   25342.57051009  .00000006  00000+0  00000+0 0  9991", "line2": "2 43873  55.5654  99.7112 0037210 194.8122 178.3596  2.00553358 51259"}}, "geometry": {"type": "Point", "coordinates": [69.49430001337689, -36.209671907026134]}}, {"type": "Feature", "properties": {"norad_id": 44204, "name": "BEIDOU-3 IGSO-1 (C38)", "group": "gnss", "lat": 27.967853265335126, "lon": -159.4056308192384, "alt_km": 35760.468423865736, "timestamp": "2025-12-10T23:33:13.064262+00:00", "meta": {"OBJECT_NAME": "BEIDOU-3 IGSO-1 (C38)", "OBJECT_ID": "2019-023A", "EPOCH": "2025-11-19T14:15:02.708640", "MEAN_MOTION": 1.00252177, "ECCENTRICITY": 0.0026966, "INCLINATION": 58.4003, "RA_OF_ASC_NODE": 39.8168, "ARG_OF_PERICENTER": 221.2202, "MEAN_ANOMALY": 126.9723, "EPHEMERIS_TYPE": 0, "CLASSIFICATION_TYPE": "U", "NORAD_CAT_ID": 44204, "ELEMENT_SET_NO": 999, "REV_AT_EPOCH": 510, "BSTAR": 0, "MEAN_MOTION_DOT": -2.26e-06, "MEAN_MOTION_DDOT": 0}, "tle": {"line1": "1 44204U 19023A   25323.59378135 -.00000226  00000+0  00000+0 0  9994", "line2": "2 44204  58.4003  39.8168 0026966 221.2202 126.9723  1.00252177  5102"}}, "geometry": {"type": "Point", "coordinates": [-159.4056308192384, 27.967853265335126]}}, {"type": "Feature", "properties": {"norad_id": 44231, "name": "BEIDOU-2 G8 (C01)", "group": "gnss", "lat": 0.9824170022483494, "lon": -142.3122420949915, "alt_km": 35800.51168117488, "timestamp": "2025-12-10T23:33:13.064276+00:00", "meta": {"OBJECT_NAME": "BEIDOU-2 G8 (C01)", "OBJECT_ID": "2019-027A", "EPOCH": "2025-12-10T13:34:00.693120", "MEAN_MOTION": 1.00268228, "ECCENTRICITY": 0.00086103, "INCLINATION": 1.6567, "RA_OF_ASC_NODE": 74.6882, "ARG_OF_PERICENTER": 255.1063, "MEAN_ANOMALY": 97.7679, "EPHEMERIS_TYPE": 0, "CLASSIFICATION_TYPE": "U", "NORAD_CAT_ID": 44231, "ELEMENT_SET_NO": 999, "REV_AT_EPOCH": 2418, "BSTAR": 0, "MEAN_MOTION_DOT": -2.44e-06, "MEAN_MOTION_DDOT": 0}, "tle": {"line1": "1 44231U 19027A   25344.56528580 -.00000244  00000+0  00000+0 0  9999", "line2": "2 44231   1.6567  74.6882 0008610 255.1063  97.7679  1.00268228 24182"}}, "geometry": {"type": "Point", "coordinates": [-142.3122420949915, 0.9824170022483494]}}, {"type": "Feature", "properties": {"norad_id": 44299, "name": "COSMOS 2534 (758)", "group": "gnss", "lat": 55.63994860351986, "lon": -25.65669137423782, "alt_km": 19146.22822069067, "timestamp": "2025-12-10T23:33:13.064288+00:00", "meta": {"OBJECT_NAME": "COSMOS 2534 (758)", "OBJECT_ID": "2019-030A", "EPOCH": "2025-12-10T14:34:24.563136", "MEAN_MOTION": 2.13102261, "ECCENTRICITY": 0.00089995, "INCLINATION": 64.3653, "RA_OF_ASC_NODE": 198.9649, "ARG_OF_PERICENTER": 283.4628, "MEAN_ANOMALY": 263.2195, "EPHEMERIS_TYPE": 0, "CLASSIFICATION_TYPE": "U", "NORAD_CAT_ID": 44299, "ELEMENT_SET_NO": 999, "REV_AT_EPOCH": 5090, "BSTAR": 0, "MEAN_MOTION_DOT": 4.7e-07, "MEAN_MOTION_DDOT": 0}, "tle": {"line1": "1 44299U 19030A   25344.60722874  .00000047  00000+0  00000+0 0  9994", "line2": "2 44299  64.3653 198.9649 0008999 283.4628 263.2195  2.13102261 50901"}}, "geometry": {"type": "Point", "coordinates": [-25.65669137423782, 55.63994860351986]}}, {"type": "Feature", "properties": {"norad_id": 44337, "name": "BEIDOU-3 IGSO-2 (C39)", "group": "gnss", "lat": 25.93721947899207, "lon": -179.71892320468962, "alt_km": 35938.36494580232, "timestamp": "2025-12-10T23:33:13.064299+00:00", "meta": {"OBJECT_NAME": "BEIDOU-3 IGSO-2 (C39)", "OBJECT_ID": "2019-035A", "EPOCH": "2025-12-08T21:18:38.600064", "MEAN_MOTION": 1.00272014, "ECCENTRICITY": 0.0037301, "INCLINATION": 55.2241, "RA_OF_ASC_NODE": 160.5341, "ARG_OF_PERICENTER": 202.3504, "MEAN_ANOMALY": 154.1975, "EPHEMERIS_TYPE": 0, "CLASSIFICATION_TYPE": "U", "NORAD_CAT_ID": 44337, "ELEMENT_SET_NO": 999, "REV_AT_EPOCH": 2375, "BSTAR": 0, "MEAN_MOTION_DOT": -7.9e-07, "MEAN_MOTION_DDOT": 0}, "tle": {"line1": "1 44337U 19035A   25342.88794676 -.00000079  00000+0  00000+0 0  9995", "line2": "2 44337  55.2241 160.5341 0037301 202.3504 154.1975  1.00272014 23758"}}, "geometry": {"type": "Point", "coordinates": [-179.71892320468962, 25.93721947899207]}}]}